[{"OBJECT_NAME":"SAPPHIRE","OBJECT_ID":"2013-009C","EPOCH":"2026-03-09T22:57:28.647648","MEAN_MOTION":14.35209243,"ECCENTRICITY":0.00112275,"INCLINATION":98.4222,"RA_OF_ASC_NODE":250.7769,"ARG_OF_PERICENTER":178.7646,"MEAN_ANOMALY":181.357,"EPHEMERIS_TYPE":0,"CLASSIFICATION_TYPE":"U","NORAD_CAT_ID":39088,"ELEMENT_SET_NO":999,"REV_AT_EPOCH":68234,"BSTAR":9.3997997e-5,"MEAN_MOTION_DOT":2.26e-6,"MEAN_MOTION_DDOT":0},{"OBJECT_NAME":"RADARSAT-1","OBJECT_ID":"1995-059A","EPOCH":"2026-03-09T21:39:45.079776","MEAN_MOTION":14.32349306,"ECCENTRICITY":0.00010659,"INCLINATION":98.5507,"RA_OF_ASC_NODE":79.258,"ARG_OF_PERICENTER":74.248,"MEAN_ANOMALY":285.8821,"EPHEMERIS_TYPE":0,"CLASSIFICATION_TYPE":"U","NORAD_CAT_ID":23710,"ELEMENT_SET_NO":999,"REV_AT_EPOCH":58413,"BSTAR":0.00014061132,"MEAN_MOTION_DOT":3.36e-6,"MEAN_MOTION_DDOT":0}]
